CCSDS_OMM_VERS = 2.0
CREATION_DATE  = 
ORIGINATOR     = 

OBJECT_NAME    = SL-16 R/B
OBJECT_ID      = 1998-045B
CENTER_NAME    = EARTH
REF_FRAME      = TEME
TIME_SYSTEM    = UTC
MEAN_ELEMENT_THEORY = SGP/SGP4

EPOCH          = 2026-03-06T09:28:21.102816
MEAN_MOTION    = 14.16189122
ECCENTRICITY   = .00065429
INCLINATION    = 71.0115
RA_OF_ASC_NODE = 188.5026
ARG_OF_PERICENTER = 13.0642
MEAN_ANOMALY   = 347.0650

EPHEMERIS_TYPE = 0
CLASSIFICATION_TYPE = U
NORAD_CAT_ID   = 25407
ELEMENT_SET_NO = 999
REV_AT_EPOCH   = 42663
BSTAR          = -.11608829E-4
MEAN_MOTION_DOT = -.71E-6
MEAN_MOTION_DDOT = 0

CCSDS_OMM_VERS = 2.0
CREATION_DATE  = 
ORIGINATOR     = 

OBJECT_NAME    = ISS (ZARYA)
OBJECT_ID      = 1998-067A
CENTER_NAME    = EARTH
REF_FRAME      = TEME
TIME_SYSTEM    = UTC
MEAN_ELEMENT_THEORY = SGP/SGP4

EPOCH          = 2026-03-06T13:04:21.510624
MEAN_MOTION    = 15.48477653
ECCENTRICITY   = .00081171
INCLINATION    = 51.6317
RA_OF_ASC_NODE = 87.9051
ARG_OF_PERICENTER = 163.3368
MEAN_ANOMALY   = 196.7888

EPHEMERIS_TYPE = 0
CLASSIFICATION_TYPE = U
NORAD_CAT_ID   = 25544
ELEMENT_SET_NO = 999
REV_AT_EPOCH   = 55584
BSTAR          = .18044032E-3
MEAN_MOTION_DOT = .9332E-4
MEAN_MOTION_DDOT = 0

CCSDS_OMM_VERS = 2.0
CREATION_DATE  = 
ORIGINATOR     = 

OBJECT_NAME    = CZ-4B R/B
OBJECT_ID      = 1999-025C
CENTER_NAME    = EARTH
REF_FRAME      = TEME
TIME_SYSTEM    = UTC
MEAN_ELEMENT_THEORY = SGP/SGP4

EPOCH          = 2026-03-06T01:28:23.350368
MEAN_MOTION    = 14.18264511
ECCENTRICITY   = .00369519
INCLINATION    = 98.6633
RA_OF_ASC_NODE = 109.4287
ARG_OF_PERICENTER = 357.0932
MEAN_ANOMALY   = 32.9430

EPHEMERIS_TYPE = 0
CLASSIFICATION_TYPE = U
NORAD_CAT_ID   = 25732
ELEMENT_SET_NO = 999
REV_AT_EPOCH   = 38765
BSTAR          = .4851929E-4
MEAN_MOTION_DOT = .57E-6
MEAN_MOTION_DDOT = 0

CCSDS_OMM_VERS = 2.0
CREATION_DATE  = 
ORIGINATOR     = 

OBJECT_NAME    = OKEAN-O
OBJECT_ID      = 1999-039A
CENTER_NAME    = EARTH
REF_FRAME      = TEME
TIME_SYSTEM    = UTC
MEAN_ELEMENT_THEORY = SGP/SGP4

EPOCH          = 2026-03-06T09:46:46.814592
MEAN_MOTION    = 14.80329538
ECCENTRICITY   = .0001325
INCLINATION    = 97.9448
RA_OF_ASC_NODE = 125.3323
ARG_OF_PERICENTER = 69.1471
MEAN_ANOMALY   = 290.9883

EPHEMERIS_TYPE = 0
CLASSIFICATION_TYPE = U
NORAD_CAT_ID   = 25860
ELEMENT_SET_NO = 999
REV_AT_EPOCH   = 43390
BSTAR          = .13331908E-3
MEAN_MOTION_DOT = .964E-5
MEAN_MOTION_DDOT = 0

CCSDS_OMM_VERS = 2.0
CREATION_DATE  = 
ORIGINATOR     = 

OBJECT_NAME    = SL-16 R/B
OBJECT_ID      = 1999-039B
CENTER_NAME    = EARTH
REF_FRAME      = TEME
TIME_SYSTEM    = UTC
MEAN_ELEMENT_THEORY = SGP/SGP4

EPOCH          = 2026-03-06T10:59:28.760928
MEAN_MOTION    = 14.81726502
ECCENTRICITY   = .00134493
INCLINATION    = 97.9973
RA_OF_ASC_NODE = 124.5595
ARG_OF_PERICENTER = 267.6987
MEAN_ANOMALY   = 92.2686

EPHEMERIS_TYPE = 0
CLASSIFICATION_TYPE = U
NORAD_CAT_ID   = 25861
ELEMENT_SET_NO = 999
REV_AT_EPOCH   = 43638
BSTAR          = .11021496E-3
MEAN_MOTION_DOT = .816E-5
MEAN_MOTION_DDOT = 0

CCSDS_OMM_VERS = 2.0
CREATION_DATE  = 
ORIGINATOR     = 

OBJECT_NAME    = HELIOS 1B
OBJECT_ID      = 1999-064A
CENTER_NAME    = EARTH
REF_FRAME      = TEME
TIME_SYSTEM    = UTC
MEAN_ELEMENT_THEORY = SGP/SGP4

EPOCH          = 2026-03-06T11:38:59.682336
MEAN_MOTION    = 14.87683680
ECCENTRICITY   = .0002495
INCLINATION    = 98.1697
RA_OF_ASC_NODE = 327.6348
ARG_OF_PERICENTER = 79.2297
MEAN_ANOMALY   = 280.9200

EPHEMERIS_TYPE = 0
CLASSIFICATION_TYPE = U
NORAD_CAT_ID   = 25977
ELEMENT_SET_NO = 999
REV_AT_EPOCH   = 68478
BSTAR          = .30481179E-3
MEAN_MOTION_DOT = .2718E-4
MEAN_MOTION_DDOT = 0

CCSDS_OMM_VERS = 2.0
CREATION_DATE  = 
ORIGINATOR     = 

OBJECT_NAME    = SL-16 R/B
OBJECT_ID      = 2000-006B
CENTER_NAME    = EARTH
REF_FRAME      = TEME
TIME_SYSTEM    = UTC
MEAN_ELEMENT_THEORY = SGP/SGP4

EPOCH          = 2026-03-06T09:49:19.600032
MEAN_MOTION    = 14.15825561
ECCENTRICITY   = .00170079
INCLINATION    = 71.0012
RA_OF_ASC_NODE = 104.7358
ARG_OF_PERICENTER = 194.8070
MEAN_ANOMALY   = 165.2557

EPHEMERIS_TYPE = 0
CLASSIFICATION_TYPE = U
NORAD_CAT_ID   = 26070
ELEMENT_SET_NO = 999
REV_AT_EPOCH   = 34809
BSTAR          = .63490821E-4
MEAN_MOTION_DOT = .77E-6
MEAN_MOTION_DDOT = 0

CCSDS_OMM_VERS = 2.0
CREATION_DATE  = 
ORIGINATOR     = 

OBJECT_NAME    = IDEFIX & ARIANE 42P R/B
OBJECT_ID      = 2002-021B
CENTER_NAME    = EARTH
REF_FRAME      = TEME
TIME_SYSTEM    = UTC
MEAN_ELEMENT_THEORY = SGP/SGP4

EPOCH          = 2026-03-06T13:25:16.846464
MEAN_MOTION    = 14.31023607
ECCENTRICITY   = .00113916
INCLINATION    = 98.5866
RA_OF_ASC_NODE = 4.2029
ARG_OF_PERICENTER = 191.5536
MEAN_ANOMALY   = 168.5388

EPHEMERIS_TYPE = 0
CLASSIFICATION_TYPE = U
NORAD_CAT_ID   = 27422
ELEMENT_SET_NO = 999
REV_AT_EPOCH   = 24357
BSTAR          = .17399389E-3
MEAN_MOTION_DOT = .414E-5
MEAN_MOTION_DDOT = 0

